FLOCK 4G-21             
1 62651U 25009AU  26068.19487675  .00013648  00000+0  49619-3 0  9998
2 62651  97.4032 151.1274 0000465 329.5782  30.5431 15.28381075 63677
STARLINK-36447          
1 67425U 26005X   26068.53504780  .00029523  00000+0  10777-2 0  9995
2 67425  43.0012 238.7868 0002124 286.3221  73.7398 15.27590263  8679
